STARLINK-2113           
1 47392U 21005AV  25250.07653493  .00003482  00000+0  25250-3 0  9997
2 47392  53.0540 135.8937 0001529  83.4307 276.6856 15.06401715255789
STARLINK-2114           
1 47393U 21005AW  25249.90379952  .00001701  00000+0  13306-3 0  9994
2 47393  53.0544 112.0198 0001446  95.2118 264.9036 15.06400052256109
STARLINK-2117           
1 47395U 21005AY  25250.05534089  .00002528  00000+0  18857-3 0  9992
2 47395  53.0542 125.9864 0001378 100.0182 260.0963 15.06398382255929
STARLINK-2119           
1 47397U 21005BA  25250.16222729  .00002124  00000+0  16148-3 0  9994
2 47397  53.0537 165.5072 0001460  86.7285 273.3871 15.06400119255389
STARLINK-2121           
1 47399U 21005BC  25250.03877796  .00001661  00000+0  13036-3 0  9990
2 47399  53.0536 146.3025 0001333  85.8439 274.2702 15.06396692255636
STARLINK-2122           
1 47400U 21005BD  25250.06638846 -.00019454  00000+0 -12919-2 0  9996
2 47400  53.0538 125.9454 0001432  84.9271 275.1881 15.06365167255927
STARLINK-2123           
1 47401U 21005BE  25250.08390213  .00002375  00000+0  17826-3 0  9997
2 47401  53.0545 135.8568 0001431  89.1958 270.9195 15.06401076255796
STARLINK-2128           
1 47404U 21005BH  25249.97332863  .00003034  00000+0  22250-3 0  9993
2 47404  53.0542 136.3574 0001448  92.8929 267.2225 15.06395574255772
STARLINK-2130           
1 47405U 21005BJ  25250.15485396  .00003152  00000+0  23036-3 0  9990
2 47405  53.0533 165.5411 0001339  83.1324 276.9818 15.06403288255371
STARLINK-2133           
1 47406U 21005BK  25250.11680727  .00009347  00000+0  64275-3 0  9994
2 47406  53.0544 135.7095 0001558  91.6245 268.4922 15.06562715255799
STARLINK-2134           
1 47407U 21005BL  25249.99172683  .00016980  00000+0  11545-2 0  9998
2 47407  53.0544 136.2742 0001116  96.0376 264.0740 15.06450445255773
STARLINK-2135           
1 47408U 21005BM  25250.09496033  .00004263  00000+0  30486-3 0  9997
2 47408  53.0542 135.8077 0001416  93.0219 267.0932 15.06406203255795
STARLINK-1954           
1 47555U 21009H   25249.95581831  .00004248  00000+0  30387-3 0  9991
2 47555  53.0541 126.4352 0001377  81.9270 278.1875 15.06405292253107
STARLINK-1955           
1 47556U 21009J   25250.07461110  .00080631  00000+0  27527-2 0  9995
2 47556  53.0592 132.8400 0007486 109.8859 250.2948 15.29610326253023
STARLINK-1958           
1 47559U 21009M   25249.89868519  .00001440  00000+0  11556-3 0  9997
2 47559  53.0541 106.6904 0001548  90.6097 269.5069 15.06390840253378
STARLINK-1962           
1 47563U 21009R   25249.98162508  .00006139  00000+0  43060-3 0  9992
2 47563  53.0532 126.3189 0001470 102.7123 257.4030 15.06406099253105
