[{"OBJECT_NAME":"STARLINK-2113","OBJECT_ID":"2021-005AV","EPOCH":"2025-09-07T01:50:12.617952","MEAN_MOTION":15.06401715,"ECCENTRICITY":0.00015295,"INCLINATION":53.054,"RA_OF_ASC_NODE":135.8937,"ARG_OF_PERICENTER":83.4307,"MEAN_ANOMALY":276.6856,"EPHEMERIS_TYPE":0,"CLASSIFICATION_TYPE":"U","NORAD_CAT_ID":47392,"ELEMENT_SET_NO":999,"REV_AT_EPOCH":25578,"BSTAR":0.00025250031,"MEAN_MOTION_DOT":3.482e-5,"MEAN_MOTION_DDOT":0},{"OBJECT_NAME":"STARLINK-2114","OBJECT_ID":"2021-005AW","EPOCH":"2025-09-06T21:41:28.278528","MEAN_MOTION":15.06400052,"ECCENTRICITY":0.00014469,"INCLINATION":53.0544,"RA_OF_ASC_NODE":112.0198,"ARG_OF_PERICENTER":95.2118,"MEAN_ANOMALY":264.9036,"EPHEMERIS_TYPE":0,"CLASSIFICATION_TYPE":"U","NORAD_CAT_ID":47393,"ELEMENT_SET_NO":999,"REV_AT_EPOCH":25610,"BSTAR":0.00013306221,"MEAN_MOTION_DOT":1.701e-5,"MEAN_MOTION_DDOT":0},{"OBJECT_NAME":"STARLINK-2117","OBJECT_ID":"2021-005AY","EPOCH":"2025-09-07T01:19:41.452896","MEAN_MOTION":15.06398382,"ECCENTRICITY":0.00013787,"INCLINATION":53.0542,"RA_OF_ASC_NODE":125.9864,"ARG_OF_PERICENTER":100.0182,"MEAN_ANOMALY":260.0963,"EPHEMERIS_TYPE":0,"CLASSIFICATION_TYPE":"U","NORAD_CAT_ID":47395,"ELEMENT_SET_NO":999,"REV_AT_EPOCH":25592,"BSTAR":0.00018856941,"MEAN_MOTION_DOT":2.528e-5,"MEAN_MOTION_DDOT":0},{"OBJECT_NAME":"STARLINK-2119","OBJECT_ID":"2021-005BA","EPOCH":"2025-09-07T03:53:36.437856","MEAN_MOTION":15.06400119,"ECCENTRICITY":0.00014603,"INCLINATION":53.0537,"RA_OF_ASC_NODE":165.5072,"ARG_OF_PERICENTER":86.7285,"MEAN_ANOMALY":273.3871,"EPHEMERIS_TYPE":0,"CLASSIFICATION_TYPE":"U","NORAD_CAT_ID":47397,"ELEMENT_SET_NO":999,"REV_AT_EPOCH":25538,"BSTAR":0.00016147557,"MEAN_MOTION_DOT":2.124e-5,"MEAN_MOTION_DDOT":0},{"OBJECT_NAME":"STARLINK-2121","OBJECT_ID":"2021-005BC","EPOCH":"2025-09-07T00:55:50.415744","MEAN_MOTION":15.06396692,"ECCENTRICITY":0.00013335,"INCLINATION":53.0536,"RA_OF_ASC_NODE":146.3025,"ARG_OF_PERICENTER":85.8439,"MEAN_ANOMALY":274.2702,"EPHEMERIS_TYPE":0,"CLASSIFICATION_TYPE":"U","NORAD_CAT_ID":47399,"ELEMENT_SET_NO":999,"REV_AT_EPOCH":25563,"BSTAR":0.00013035654,"MEAN_MOTION_DOT":1.661e-5,"MEAN_MOTION_DDOT":0},{"OBJECT_NAME":"STARLINK-2122","OBJECT_ID":"2021-005BD","EPOCH":"2025-09-07T01:35:35.962944","MEAN_MOTION":15.06365167,"ECCENTRICITY":0.00014327,"INCLINATION":53.0538,"RA_OF_ASC_NODE":125.9454,"ARG_OF_PERICENTER":84.9271,"MEAN_ANOMALY":275.1881,"EPHEMERIS_TYPE":0,"CLASSIFICATION_TYPE":"U","NORAD_CAT_ID":47400,"ELEMENT_SET_NO":999,"REV_AT_EPOCH":25592,"BSTAR":-0.0012918852,"MEAN_MOTION_DOT":-0.00019454,"MEAN_MOTION_DDOT":0},{"OBJECT_NAME":"STARLINK-2123","OBJECT_ID":"2021-005BE","EPOCH":"2025-09-07T02:00:49.144032","MEAN_MOTION":15.06401076,"ECCENTRICITY":0.00014315,"INCLINATION":53.0545,"RA_OF_ASC_NODE":135.8568,"ARG_OF_PERICENTER":89.1958,"MEAN_ANOMALY":270.9195,"EPHEMERIS_TYPE":0,"CLASSIFICATION_TYPE":"U","NORAD_CAT_ID":47401,"ELEMENT_SET_NO":999,"REV_AT_EPOCH":25579,"BSTAR":0.00017825615,"MEAN_MOTION_DOT":2.375e-5,"MEAN_MOTION_DDOT":0},{"OBJECT_NAME":"STARLINK-2128","OBJECT_ID":"2021-005BH","EPOCH":"2025-09-06T23:21:35.593632","MEAN_MOTION":15.06395574,"ECCENTRICITY":0.00014487,"INCLINATION":53.0542,"RA_OF_ASC_NODE":136.3574,"ARG_OF_PERICENTER":92.8929,"MEAN_ANOMALY":267.2225,"EPHEMERIS_TYPE":0,"CLASSIFICATION_TYPE":"U","NORAD_CAT_ID":47404,"ELEMENT_SET_NO":999,"REV_AT_EPOCH":25577,"BSTAR":0.00022249871,"MEAN_MOTION_DOT":3.034e-5,"MEAN_MOTION_DDOT":0},{"OBJECT_NAME":"STARLINK-2130","OBJECT_ID":"2021-005BJ","EPOCH":"2025-09-07T03:42:59.382144","MEAN_MOTION":15.06403288,"ECCENTRICITY":0.00013398,"INCLINATION":53.0533,"RA_OF_ASC_NODE":165.5411,"ARG_OF_PERICENTER":83.1324,"MEAN_ANOMALY":276.9818,"EPHEMERIS_TYPE":0,"CLASSIFICATION_TYPE":"U","NORAD_CAT_ID":47405,"ELEMENT_SET_NO":999,"REV_AT_EPOCH":25537,"BSTAR":0.00023036282,"MEAN_MOTION_DOT":3.152e-5,"MEAN_MOTION_DDOT":0},{"OBJECT_NAME":"STARLINK-2133","OBJECT_ID":"2021-005BK","EPOCH":"2025-09-07T02:48:12.148128","MEAN_MOTION":15.06562715,"ECCENTRICITY":0.00015583,"INCLINATION":53.0544,"RA_OF_ASC_NODE":135.7095,"ARG_OF_PERICENTER":91.6245,"MEAN_ANOMALY":268.4922,"EPHEMERIS_TYPE":0,"CLASSIFICATION_TYPE":"U","NORAD_CAT_ID":47406,"ELEMENT_SET_NO":999,"REV_AT_EPOCH":25579,"BSTAR":0.0006427518,"MEAN_MOTION_DOT":9.347e-5,"MEAN_MOTION_DDOT":0},{"OBJECT_NAME":"STARLINK-2134","OBJECT_ID":"2021-005BL","EPOCH":"2025-09-06T23:48:05.198112","MEAN_MOTION":15.06450445,"ECCENTRICITY":0.00011166,"INCLINATION":53.0544,"RA_OF_ASC_NODE":136.2742,"ARG_OF_PERICENTER":96.0376,"MEAN_ANOMALY":264.074,"EPHEMERIS_TYPE":0,"CLASSIFICATION_TYPE":"U","NORAD_CAT_ID":47407,"ELEMENT_SET_NO":999,"REV_AT_EPOCH":25577,"BSTAR":0.0011545,"MEAN_MOTION_DOT":0.0001698,"MEAN_MOTION_DDOT":0},{"OBJECT_NAME":"STARLINK-2135","OBJECT_ID":"2021-005BM","EPOCH":"2025-09-07T02:16:44.572512","MEAN_MOTION":15.06406203,"ECCENTRICITY":0.00014163,"INCLINATION":53.0542,"RA_OF_ASC_NODE":135.8077,"ARG_OF_PERICENTER":93.0219,"MEAN_ANOMALY":267.0932,"EPHEMERIS_TYPE":0,"CLASSIFICATION_TYPE":"U","NORAD_CAT_ID":47408,"ELEMENT_SET_NO":999,"REV_AT_EPOCH":25579,"BSTAR":0.00030486085,"MEAN_MOTION_DOT":4.263e-5,"MEAN_MOTION_DDOT":0},{"OBJECT_NAME":"STARLINK-1954","OBJECT_ID":"2021-009H","EPOCH":"2025-09-06T22:56:22.701984","MEAN_MOTION":15.06405292,"ECCENTRICITY":0.00013772,"INCLINATION":53.0541,"RA_OF_ASC_NODE":126.4352,"ARG_OF_PERICENTER":81.927,"MEAN_ANOMALY":278.1875,"EPHEMERIS_TYPE":0,"CLASSIFICATION_TYPE":"U","NORAD_CAT_ID":47555,"ELEMENT_SET_NO":999,"REV_AT_EPOCH":25310,"BSTAR":0.00030387173,"MEAN_MOTION_DOT":4.248e-5,"MEAN_MOTION_DDOT":0},{"OBJECT_NAME":"STARLINK-1955","OBJECT_ID":"2021-009J","EPOCH":"2025-09-07T01:47:26.399040","MEAN_MOTION":15.29610326,"ECCENTRICITY":0.00074863,"INCLINATION":53.0592,"RA_OF_ASC_NODE":132.84,"ARG_OF_PERICENTER":109.8859,"MEAN_ANOMALY":250.2948,"EPHEMERIS_TYPE":0,"CLASSIFICATION_TYPE":"U","NORAD_CAT_ID":47556,"ELEMENT_SET_NO":999,"REV_AT_EPOCH":25302,"BSTAR":0.0027526931,"MEAN_MOTION_DOT":0.00080631,"MEAN_MOTION_DDOT":0},{"OBJECT_NAME":"STARLINK-1958","OBJECT_ID":"2021-009M","EPOCH":"2025-09-06T21:34:06.400416","MEAN_MOTION":15.0639084,"ECCENTRICITY":0.00015485,"INCLINATION":53.0541,"RA_OF_ASC_NODE":106.6904,"ARG_OF_PERICENTER":90.6097,"MEAN_ANOMALY":269.5069,"EPHEMERIS_TYPE":0,"CLASSIFICATION_TYPE":"U","NORAD_CAT_ID":47559,"ELEMENT_SET_NO":999,"REV_AT_EPOCH":25337,"BSTAR":0.0001155589,"MEAN_MOTION_DOT":1.44e-5,"MEAN_MOTION_DDOT":0},{"OBJECT_NAME":"STARLINK-1962","OBJECT_ID":"2021-009R","EPOCH":"2025-09-06T23:33:32.406912","MEAN_MOTION":15.06406099,"ECCENTRICITY":0.00014706,"INCLINATION":53.0532,"RA_OF_ASC_NODE":126.3189,"ARG_OF_PERICENTER":102.7123,"MEAN_ANOMALY":257.403,"EPHEMERIS_TYPE":0,"CLASSIFICATION_TYPE":"U","NORAD_CAT_ID":47563,"ELEMENT_SET_NO":999,"REV_AT_EPOCH":25310,"BSTAR":0.00043060236,"MEAN_MOTION_DOT":6.139e-5,"MEAN_MOTION_DDOT":0}]
